{
  "links" : {
    "next" : "https://api.nasa.gov/neo/rest/v1/feed?start_date=1998-06-09&end_date=1998-06-09&detailed=true&api_key=t0TVs3DtDT2H8Oy2Zy8m2eVrNsAVKAexjcZXUckd",
    "prev" : "https://api.nasa.gov/neo/rest/v1/feed?start_date=1998-06-07&end_date=1998-06-07&detailed=true&api_key=t0TVs3DtDT2H8Oy2Zy8m2eVrNsAVKAexjcZXUckd",
    "self" : "https://api.nasa.gov/neo/rest/v1/feed?start_date=1998-06-08&end_date=1998-06-08&detailed=true&api_key=t0TVs3DtDT2H8Oy2Zy8m2eVrNsAVKAexjcZXUckd"
  },
  "element_count" : 8,
  "near_earth_objects" : {
    "1998-06-08" : [ {
      "links" : {
        "self" : "https://api.nasa.gov/neo/rest/v1/neo/3655739?api_key=t0TVs3DtDT2H8Oy2Zy8m2eVrNsAVKAexjcZXUckd"
      },
      "neo_reference_id" : "3655739",
      "name" : "(2013 YD110)",
      "nasa_jpl_url" : "http://ssd.jpl.nasa.gov/sbdb.cgi?sstr=3655739",
      "absolute_magnitude_h" : 22.4,
      "estimated_diameter" : {
        "kilometers" : {
          "estimated_diameter_min" : 0.0880146521,
          "estimated_diameter_max" : 0.1968067451
        },
        "meters" : {
          "estimated_diameter_min" : 88.0146520901,
          "estimated_diameter_max" : 196.8067450894
        },
        "miles" : {
          "estimated_diameter_min" : 0.0546897524,
          "estimated_diameter_max" : 0.122290004
        },
        "feet" : {
          "estimated_diameter_min" : 288.7619911632,
          "estimated_diameter_max" : 645.6914415591
        }
      },
      "is_potentially_hazardous_asteroid" : false,
      "close_approach_data" : [ {
        "close_approach_date" : "1998-06-08",
        "epoch_date_close_approach" : 897289200000,
        "relative_velocity" : {
          "kilometers_per_second" : "4.4868431855",
          "kilometers_per_hour" : "16152.6354676619",
          "miles_per_hour" : "10036.6195215591"
        },
        "miss_distance" : {
          "astronomical" : "0.3309178451",
          "lunar" : "128.7270355225",
          "kilometers" : "49504604",
          "miles" : "30760734"
        },
        "orbiting_body" : "Earth"
      } ],
      "orbital_data" : {
        "orbit_id" : "11",
        "orbit_determination_date" : "2017-04-06 08:43:03",
        "orbit_uncertainty" : "4",
        "minimum_orbit_intersection" : ".241742",
        "jupiter_tisserand_invariant" : "4.793",
        "epoch_osculation" : "2458000.5",
        "eccentricity" : ".123654377860541",
        "semi_major_axis" : "1.377492841147539",
        "inclination" : "6.240472506363829",
        "ascending_node_longitude" : "267.6205486909898",
        "orbital_period" : "590.5170650864337",
        "perihelion_distance" : "1.207159820868091",
        "perihelion_argument" : "271.8127166682885",
        "aphelion_distance" : "1.547825861426987",
        "perihelion_time" : "2457946.777712263884",
        "mean_anomaly" : "32.75099862214958",
        "mean_motion" : ".6096352184967033",
        "equinox" : "J2000"
      }
    }, {
      "links" : {
        "self" : "https://api.nasa.gov/neo/rest/v1/neo/3771628?api_key=t0TVs3DtDT2H8Oy2Zy8m2eVrNsAVKAexjcZXUckd"
      },
      "neo_reference_id" : "3771628",
      "name" : "(2017 FW2)",
      "nasa_jpl_url" : "http://ssd.jpl.nasa.gov/sbdb.cgi?sstr=3771628",
      "absolute_magnitude_h" : 25.643,
      "estimated_diameter" : {
        "kilometers" : {
          "estimated_diameter_min" : 0.019767647,
          "estimated_diameter_max" : 0.0442018024
        },
        "meters" : {
          "estimated_diameter_min" : 19.7676469791,
          "estimated_diameter_max" : 44.2018024005
        },
        "miles" : {
          "estimated_diameter_min" : 0.0122830426,
          "estimated_diameter_max" : 0.0274657182
        },
        "feet" : {
          "estimated_diameter_min" : 64.8544869149,
          "estimated_diameter_max" : 145.0190413875
        }
      },
      "is_potentially_hazardous_asteroid" : false,
      "close_approach_data" : [ {
        "close_approach_date" : "1998-06-08",
        "epoch_date_close_approach" : 897289200000,
        "relative_velocity" : {
          "kilometers_per_second" : "8.8625928859",
          "kilometers_per_hour" : "31905.3343893973",
          "miles_per_hour" : "19824.7340265674"
        },
        "miss_distance" : {
          "astronomical" : "0.3705231747",
          "lunar" : "144.1335144043",
          "kilometers" : "55429480",
          "miles" : "34442284"
        },
        "orbiting_body" : "Earth"
      } ],
      "orbital_data" : {
        "orbit_id" : "3",
        "orbit_determination_date" : "2017-04-06 08:19:20",
        "orbit_uncertainty" : "6",
        "minimum_orbit_intersection" : ".0135919",
        "jupiter_tisserand_invariant" : "6.444",
        "epoch_osculation" : "2458000.5",
        "eccentricity" : ".4094920454890857",
        "semi_major_axis" : ".9110508726971325",
        "inclination" : "16.26758643283316",
        "ascending_node_longitude" : "178.4551991484753",
        "orbital_period" : "317.6233116764496",
        "perihelion_distance" : ".537982787291767",
        "perihelion_argument" : "231.3684329742262",
        "aphelion_distance" : "1.284118958102498",
        "perihelion_time" : "2458075.299505957360",
        "mean_anomaly" : "275.2208885345294",
        "mean_motion" : "1.133418067143377",
        "equinox" : "J2000"
      }
    } ]
  }
}